NORAD_CAT_ID,OBJECT_NAME,OBJECT_TYPE,EPOCH,MEAN_MOTION,ECCENTRICITY,INCLINATION,RA_OF_ASC_NODE,ARG_OF_PERICENTER,MEAN_ANOMALY,BSTAR,MEAN_MOTION_DOT,MEAN_MOTION_DDOT,TLE_LINE0,TLE_LINE1,TLE_LINE2,SEMIMAJOR_AXIS,PERIOD,APOGEE,PERIGEE,DECAYED
56767.0,STARLINK-6197,PAYLOAD,2023-12-02 01:12:32,14.9833573,0.0002656,69.9993,293.8018,267.339,92.7465,0.0001223,1.367e-05,0.0,0 STARLINK-6197,1 56767U 23078A   23336.05038117  .00001367  00000-0  12230-3 0  9991,2 56767  69.9993 293.8018 0002656 267.3390  92.7465 14.98335730 28329,6950.175,96.107,573.886,570.194,0.0
56767.0,STARLINK-6197,PAYLOAD,2023-12-02 07:37:03,14.98349455,0.0002417,70.0003,293.1319,246.9443,113.1461,0.00021342,2.456e-05,0.0,0 STARLINK-6197,1 56767U 23078A   23336.31740657  .00002456  00000-0  21342-3 0  9993,2 56767  70.0003 293.1319 0002417 246.9443 113.1461 14.98349455 28365,6950.133,96.106,573.678,570.318,0.0
56767.0,STARLINK-6197,PAYLOAD,2023-12-02 22:02:18,14.98320382,0.0002558,69.999,291.6156,275.4633,84.6234,-0.0001123,-1.432e-05,0.0,0 STARLINK-6197,1 56767U 23078A   23336.91827508 -.00001432  00000-0 -11230-3 0  9990,2 56767  69.9990 291.6156 0002558 275.4633  84.6234 14.98320382 28192,6950.223,96.108,573.866,570.31,0.0
56767.0,STARLINK-6197,PAYLOAD,2023-12-03 01:14:35,14.98316071,0.0002532,69.9999,291.2809,264.2229,95.8641,-0.00013446,-1.696e-05,0.0,0 STARLINK-6197,1 56767U 23078A   23337.05179944 -.00001696  00000-0 -13446-3 0  9993,2 56767  69.9999 291.2809 0002532 264.2229  95.8641 14.98316071 28478,6950.236,96.108,573.861,570.341,0.0
56767.0,STARLINK-6197,PAYLOAD,2023-12-03 06:02:59,14.98313521,0.0002661,69.9994,290.7746,265.4166,94.6689,-0.00016345,-2.042e-05,0.0,0 STARLINK-6197,1 56767U 23078A   23337.25208276 -.00002042  00000-0 -16345-3 0  9993,2 56767  69.9994 290.7746 0002661 265.4166  94.6689 14.98313521 28244,6950.244,96.108,573.958,570.259,0.0
56767.0,STARLINK-6197,PAYLOAD,2023-12-03 20:28:12,14.98331248,0.0002617,69.999,289.2571,281.2507,78.8358,-0.00021572,-2.666e-05,0.0,0 STARLINK-6197,1 56767U 23078A   23337.85291768 -.00002666  00000-0 -21572-3 0  9997,2 56767  69.9990 289.2571 0002617 281.2507  78.8358 14.98331248 28596,6950.189,96.107,573.873,570.235,0.0
56767.0,STARLINK-6197,PAYLOAD,2023-12-04 07:41:08,14.98333597,0.0002126,70.0006,288.0807,259.4166,100.6753,-0.00014145,-1.78e-05,0.0,0 STARLINK-6197,1 56767U 23078A   23338.32023330 -.00001780  00000-0 -14145-3 0  9992,2 56767  70.0006 288.0807 0002126 259.4166 100.6753 14.98333597 28401,6950.182,96.107,573.524,570.569,0.0
56767.0,STARLINK-6197,PAYLOAD,2023-12-05 02:54:44,14.98324251,0.0002518,69.9995,286.0583,279.087,81.0004,0.00028718,3.335e-05,0.0,0 STARLINK-6197,1 56767U 23078A   23339.12134754  .00003335  00000-0  28718-3 0  9991,2 56767  69.9995 286.0583 0002518 279.0870  81.0004 14.98324251 28788,6950.211,96.107,573.826,570.326,0.0
56767.0,STARLINK-6197,PAYLOAD,2023-12-05 06:07:00,14.98332128,0.0002522,69.9995,285.7223,277.1994,82.8879,0.00028846,3.351e-05,0.0,0 STARLINK-6197,1 56767U 23078A   23339.25486195  .00003351  00000-0  28846-3 0  9994,2 56767  69.9995 285.7223 0002522 277.1994  82.8879 14.98332128 28800,6950.186,96.107,573.804,570.298,0.0
56767.0,STARLINK-6197,PAYLOAD,2023-12-06 04:32:53,14.98332251,0.0002456,70.0008,283.3651,282.4654,77.6231,1.6475e-05,1.04e-06,0.0,0 STARLINK-6197,1 56767U 23078A   23340.18950952  .00000104  00000-0  16475-4 0  9994,2 56767  70.0008 283.3651 0002456 282.4654  77.6231 14.98332251 28941,6950.186,96.107,573.758,570.344,0.0
56767.0,STARLINK-6197,PAYLOAD,2023-12-06 06:09:01,14.98332608,0.0002402,70.0,283.1977,274.613,85.4755,4.3253e-05,4.23e-06,0.0,0 STARLINK-6197,1 56767U 23078A   23340.25626818  .00000423  00000-0  43253-4 0  9991,2 56767  70.0000 283.1977 0002402 274.6130  85.4755 14.98332608 28691,6950.185,96.107,573.719,570.38,0.0
56767.0,STARLINK-6197,PAYLOAD,2023-12-06 22:10:22,14.98310831,0.0002472,70.0001,281.517,279.007,81.0809,0.00020499,2.353e-05,0.0,0 STARLINK-6197,1 56767U 23078A   23340.92387076  .00002353  00000-0  20499-3 0  9995,2 56767  70.0001 281.5170 0002472 279.0070  81.0809 14.98310831 28795,6950.252,96.108,573.835,570.399,0.0
56767.0,STARLINK-6197,PAYLOAD,2023-12-07 06:11:02,14.98330429,0.0002578,69.9996,280.6721,278.1267,81.96,-4.6444e-05,-6.47e-06,0.0,0 STARLINK-6197,1 56767U 23078A   23341.25766951 -.00000647  00000-0 -46444-4 0  9990,2 56767  69.9996 280.6721 0002578 278.1267  81.9600 14.98330429 29101,6950.192,96.107,573.848,570.265,0.0
56767.0,STARLINK-6197,PAYLOAD,2023-12-08 06:13:03,14.98324054,0.0002319,70.0001,278.1466,277.3801,82.7095,5.8651e-05,6.07e-06,0.0,0 STARLINK-6197,1 56767U 23078A   23342.25907095  .00000607  00000-0  58651-4 0  9994,2 56767  70.0001 278.1466 0002319 277.3801  82.7095 14.98324054 29257,6950.211,96.107,573.688,570.465,0.0
56767.0,STARLINK-6197,PAYLOAD,2023-12-08 19:02:07,14.9834448,0.0002457,69.9997,276.7993,273.701,86.3868,-0.00011958,-1.52e-05,0.0,0 STARLINK-6197,1 56767U 23078A   23342.79314376 -.00001520  00000-0 -11958-3 0  9992,2 56767  69.9997 276.7993 0002457 273.7010  86.3868 14.98344480 29334,6950.148,96.106,573.721,570.305,0.0
56767.0,STARLINK-6197,PAYLOAD,2023-12-09 06:15:02,14.98406528,0.0002786,69.9997,275.6209,269.6352,90.4487,-0.0011083,-0.00013318,0.0,0 STARLINK-6197,1 56767U 23078A   23343.26044236 -.00013318  00000-0 -11083-2 0  9996,2 56767  69.9997 275.6209 0002786 269.6352  90.4487 14.98406528 29403,6949.956,96.102,573.758,569.885,0.0
56767.0,STARLINK-6197,PAYLOAD,2023-12-09 19:04:08,14.9833216,0.0002246,70.0003,274.273,281.5635,78.5271,-1.8347e-06,-1.15e-06,0.0,0 STARLINK-6197,1 56767U 23078A   23343.79454602 -.00000115  00000-0 -18347-5 0  9990,2 56767  70.0003 274.2730 0002246 281.5635  78.5271 14.98332160 29482,6950.186,96.107,573.612,570.49,0.0
56767.0,STARLINK-6197,PAYLOAD,2023-12-10 22:18:26,14.98328002,0.000225,69.9999,271.414,251.6617,108.4297,-9.1776e-05,-1.188e-05,0.0,0 STARLINK-6197,1 56767U 23078A   23344.92946822 -.00001188  00000-0 -91776-4 0  9993,2 56767  69.9999 271.4140 0002250 251.6617 108.4297 14.98328002 29391,6950.199,96.107,573.628,570.5,0.0
56767.0,STARLINK-6197,PAYLOAD,2023-12-11 04:42:58,14.98330616,0.0002713,69.9989,270.7411,266.2051,93.8798,-9.2109e-05,-1.192e-05,0.0,0 STARLINK-6197,1 56767U 23078A   23345.19650700 -.00001192  00000-0 -92109-4 0  9996,2 56767  69.9989 270.7411 0002713 266.2051  93.8798 14.98330616 29691,6950.191,96.107,573.942,570.17,0.0
56767.0,STARLINK-6197,PAYLOAD,2023-12-11 22:20:26,14.98328132,0.0002647,69.9985,268.889,265.9616,94.1241,4.0333e-05,3.88e-06,0.0,0 STARLINK-6197,1 56767U 23078A   23345.93086474  .00000388  00000-0  40333-4 0  9995,2 56767  69.9985 268.8890 0002647 265.9616  94.1241 14.98328132 29546,6950.199,96.107,573.903,570.224,0.0
56767.0,STARLINK-6197,PAYLOAD,2023-12-12 04:44:58,14.98330193,0.000241,69.9998,268.2185,254.3205,105.7689,5.8361e-05,6.03e-06,0.0,0 STARLINK-6197,1 56767U 23078A   23346.19790277  .00000603  00000-0  58361-4 0  9997,2 56767  69.9998 268.2185 0002410 254.3205 105.7689 14.98330193 29843,6950.192,96.107,573.732,570.382,0.0
56767.0,STARLINK-6197,PAYLOAD,2023-12-12 22:22:27,14.98331557,0.0002448,69.9995,266.3665,256.2108,103.8778,2.6572e-05,2.24e-06,0.0,0 STARLINK-6197,1 56767U 23078A   23346.93226251  .00000224  00000-0  26572-4 0  9993,2 56767  69.9995 266.3665 0002448 256.2108 103.8778 14.98331557 29692,6950.188,96.107,573.754,570.352,0.0
56767.0,STARLINK-6197,PAYLOAD,2023-12-13 04:46:59,14.98349241,0.0002587,69.9994,265.6931,255.1397,104.9475,-0.00025102,-3.088e-05,0.0,0 STARLINK-6197,1 56767U 23078A   23347.19929747 -.00003088  00000-0 -25102-3 0  9992,2 56767  69.9994 265.6931 0002587 255.1397 104.9475 14.98349241 29999,6950.133,96.106,573.796,570.2,0.0
56767.0,STARLINK-6197,PAYLOAD,2023-12-13 19:12:12,14.9833355,0.0002381,69.9996,264.1787,251.6428,108.4472,-4.7791e-06,-1.5e-06,0.0,0 STARLINK-6197,1 56767U 23078A   23347.80014084 -.00000150  00000-0 -47791-5 0  9996,2 56767  69.9996 264.1787 0002381 251.6428 108.4472 14.98333550 30086,6950.182,96.107,573.702,570.392,0.0
56767.0,STARLINK-6197,PAYLOAD,2023-12-13 20:48:20,14.98334173,0.0002384,69.9997,264.01,250.7431,109.347,6.8984e-07,-8.5e-07,0.0,0 STARLINK-6197,1 56767U 23078A   23347.86690003 -.00000085  00000-0  68984-6 0  9997,2 56767  69.9997 264.0100 0002384 250.7431 109.3470 14.98334173 29833,6950.18,96.107,573.702,570.388,0.0
56767.0,STARLINK-6197,PAYLOAD,2023-12-14 04:49:00,14.98319525,0.0002311,69.9997,263.1674,260.3947,99.6951,0.00024902,2.879e-05,0.0,0 STARLINK-6197,1 56767U 23078A   23348.20070301  .00002879  00000-0  24902-3 0  9990,2 56767  69.9997 263.1674 0002311 260.3947  99.6951 14.98319525 30143,6950.225,96.108,573.696,570.484,0.0
56767.0,STARLINK-6197,PAYLOAD,2023-12-14 20:50:21,14.98330865,0.0002445,69.9998,261.4841,260.735,99.3533,4.5822e-07,-8.7e-07,0.0,0 STARLINK-6197,1 56767U 23078A   23348.86829991 -.00000087  00000-0  45822-6 0  9996,2 56767  69.9998 261.4841 0002445 260.7350  99.3533 14.98330865 30245,6950.19,96.107,573.755,570.356,0.0
56767.0,STARLINK-6197,PAYLOAD,2023-12-14 22:26:29,14.9833117,0.0002462,69.9997,261.316,260.1987,99.8894,-6.3548e-06,-1.69e-06,0.0,0 STARLINK-6197,1 56767U 23078A   23348.93505977 -.00000169  00000-0 -63548-5 0  9995,2 56767  69.9997 261.3160 0002462 260.1987  99.8894 14.98331170 29991,6950.189,96.107,573.765,570.343,0.0
56767.0,STARLINK-6197,PAYLOAD,2023-12-15 03:14:53,14.98334294,0.0002467,69.9996,260.8118,259.7419,100.3462,1.7284e-05,1.13e-06,0.0,0 STARLINK-6197,1 56767U 23078A   23349.13533699  .00000113  00000-0  17284-4 0  9992,2 56767  69.9996 260.8118 0002467 259.7419 100.3462 14.98334294 30021,6950.18,96.107,573.759,570.33,0.0
56767.0,STARLINK-6197,PAYLOAD,2023-12-15 22:28:30,14.9832699,0.0002185,70.0007,258.7924,234.5377,125.5578,-3.4101e-05,-5e-06,0.0,0 STARLINK-6197,1 56767U 23078A   23349.93646193 -.00000500  00000-0 -34101-4 0  9993,2 56767  70.0007 258.7924 0002185 234.5377 125.5578 14.98326990 30143,6950.202,96.107,573.586,570.549,0.0
